satname,norad_id,inclination_deg,eccentricity,mean_motion_rev_per_day,perigee_km,apogee_km,l1,l2
STARLINK-1234,45190,53.033,0.0002028,15.83991419,317.80794917358344,320.52437533619377,1 45190U 20012N   26186.58336806  .00126728  00000+0  54987-3 0  9997,2 45190  53.0330 101.2219 0002028 188.8028 184.1260 15.83991419  6006
STARLINK-1269,45197,53.1529,0.0003066,15.37377339,451.7735530406835,455.9629386574388,1 45197U 20012V   26186.50583901  .00031667  00000+0  85866-3 0  9993,2 45197  53.1529 210.1439 0003066  16.3103 343.7999 15.37377339352981
STARLINK-1154,45198,53.0399,0.0004291,15.66011715,367.43488097985846,373.22641591575666,1 45198U 20012W   26186.18561010  .00076562  00000+0  73313-3 0  9992,2 45198  53.0399 160.5338 0004291  59.7445 300.3994 15.66011715353590
STARLINK-1199,45201,53.1535,0.0005948,15.37303255,450.0239303853359,458.1515449332546,1 45201U 20012Z   26186.28214683  .00039132  00000+0  10597-2 0  9995,2 45201  53.1535 195.4690 0005948  15.0391 345.0789 15.37303255353196
STARLINK-1209,45206,53.0359,0.0001314,15.73670339,347.53368089992364,349.3014194357065,1 45206U 20012AE  26186.19493080  .00108328  00000+0  75093-3 0  9997,2 45206  53.0359 119.7604 0001314 152.8691 207.2396 15.73670339353276
STARLINK-1231,45212,53.0382,0.0002641,15.29594666,475.212635895261,478.83353145145793,1 45212U 20012AL  26186.33419619  .00013377  00000+0  47159-3 0  9997,2 45212  53.0382 191.6138 0002641  77.8993 282.2301 15.29594666353183
STARLINK-1271,45217,53.1548,0.0005435,15.37507615,449.7693292712438,457.1952994659632,1 45217U 20012AR  26186.40635622  .00089153  00000+0  23697-2 0  9999,2 45217  53.1548 194.9702 0005435  20.6856 339.4367 15.37507615353212
STARLINK-1191,45222,53.1521,0.000369,15.41860524,438.10232923233707,443.1345707544324,1 45222U 20012AW  26186.24801264  .00053982  00000+0  12535-2 0  9994,2 45222  53.1521 167.9042 0003690   3.7405 356.3628 15.41860524353583
STARLINK-1212,45223,53.0376,0.0001516,15.72423207,350.9534720739766,352.9940416554582,1 45223U 20012AX  26186.39746963  .00090113  00000+0  66097-3 0  9995,2 45223  53.0376 134.3013 0001516 135.1001 225.0139 15.72423207354042
STARLINK-1215,45225,53.1549,0.0005288,15.37656819,449.42805066273195,456.652703856922,1 45225U 20012AZ  26186.27314246  .00030884  00000+0  83004-3 0  9995,2 45225  53.1549 169.8334 0005288  25.4070 334.7193 15.37656819353510
STARLINK-1221,45227,53.0635,0.0002772,15.46307195,425.6533108150843,429.42637805763934,1 45227U 20012BB  26185.95124869  .00028753  00000+0  58036-3 0  9990,2 45227  53.0635  72.2853 0002772  47.7364 312.3877 15.46307195354824
STARLINK-1222,45228,53.0515,0.0003837,15.57135248,393.35360254377156,398.5520390722595,1 45228U 20012BC  26186.24666179  .00045277  00000+0  61599-3 0  9997,2 45228  53.0515 136.0526 0003837  78.6763 281.4679 15.57135248353899
STARLINK-1226,45229,53.154,0.0005658,15.47160524,421.18795267758014,428.8864245894374,1 45229U 20012BD  26186.33348153  .00084372  00000+0  16252-2 0  9991,2 45229  53.1540 163.7959 0005658  24.3558 335.7717 15.47160524353541
STARLINK-1227,45230,53.1514,0.0005139,15.47259977,421.2496596988058,428.2416624978823,1 45230U 20012BE  26186.40621740  .00088742  00000+0  17023-2 0  9999,2 45230  53.1514 163.5308 0005139  20.7076 339.4140 15.47259977353675
STARLINK-1246,45235,53.154,0.0004801,15.37566273,450.02878585199596,456.58833988146125,1 45235U 20012BK  26186.44567470  .00030436  00000+0  82065-3 0  9993,2 45235  53.1540 210.0363 0004801 347.2110  12.8771 15.37566273353030
STARLINK-1270,45237,53.0388,0.0001876,15.71373348,353.70795327924407,356.23421543249424,1 45237U 20012BM  26186.13606758  .00094605  00000+0  72471-3 0  9992,2 45237  53.0388 137.4670 0001876 140.4231 219.6923 15.71373348353976
STARLINK-1279,45360,53.0313,0.0003994,15.85126878,313.2938775854309,318.6411282623667,1 45360U 20019A   26186.58336806  .00209091  00000+0  84909-3 0  9995,2 45360  53.0313 235.7243 0003994   9.8502 264.5341 15.85126878  5999
STARLINK-1301,45361,53.0298,0.000624,15.86750181,307.22691111905533,315.57545477137046,1 45361U 20019B   26186.66670139  .00184020  00000+0  69252-3 0  9993,2 45361  53.0298 237.3124 0006240  14.2788  83.1952 15.86750181  5827
STARLINK-1262,45366,53.1538,0.0002088,15.36562097,454.85754150288267,457.71159594998244,1 45366U 20019G   26186.43511103  .00043149  00000+0  11955-2 0  9990,2 45366  53.1538 336.7350 0002088 216.2294 143.8569 15.36562097347804
STARLINK-1273,45367,53.0421,7.92e-05,15.6122402,383.58473385174784,384.6558754088019,1 45367U 20019H   26186.58336806  .00075550  00000+0  87350-3 0  9996,2 45367  53.0421 306.6826 0000792 317.9314  72.5996 15.61224020  5948
STARLINK-1277,45369,53.041,0.0002042,15.70069663,357.3220674117956,360.07339071514525,1 45369U 20019K   26186.31942234  .00090578  00000+0  73323-3 0  9999,2 45369  53.0410 300.3094 0002042   5.6745 354.4294 15.70069663348285
STARLINK-1281,45370,53.1574,0.0001962,15.37381701,452.51488602234895,455.19575980986156,1 45370U 20019L   26186.43174715  .00054312  00000+0  14607-2 0  9990,2 45370  53.1574 336.2262 0001962 180.3987 179.7016 15.37381701347814
STARLINK-1300,45374,53.1591,0.0002073,15.3803194,450.5137246328759,453.34547024417407,1 45374U 20019Q   26186.43350890  .00067442  00000+0  17705-2 0  9994,2 45374  53.1591 336.0156 0002073 198.1186 161.9744 15.38031940347818
STARLINK-1302,45375,53.0441,0.0001146,15.70344279,357.1403464253017,358.68424892432904,1 45375U 20019R   26186.35397035  .00082699  00000+0  66292-3 0  9995,2 45375  53.0441 295.9437 0001146 105.7763 254.3380 15.70344279348342
STARLINK-1304,45376,53.0412,5.71e-05,15.66094461,369.7076148801343,370.478262739146,1 45376U 20019S   26186.30022482  .00070260  00000+0  67174-3 0  9993,2 45376  53.0412 298.3409 0000571 225.0682 135.0287 15.66094461348301
STARLINK-1305,45377,53.0362,0.0006116,15.75365163,339.4812587781489,347.70327801925487,1 45377U 20019T   26186.29264076  .00113671  00000+0  73098-3 0  9995,2 45377  53.0362 275.1516 0006116 348.5774  11.5105 15.75365163348635
STARLINK-1319,45379,53.034,0.0003224,15.82938906,319.9744047833301,324.29473989317376,1 45379U 20019V   26186.58336806  .00169935  00000+0  76983-3 0  9990,2 45379  53.0340 264.0364 0003224   8.9041 329.2236 15.82938906  6007
STARLINK-1266,45383,53.0439,0.0003369,15.68569703,360.72073429064494,365.2629068899578,1 45383U 20019Z   26186.27273013  .00078373  00000+0  67646-3 0  9992,2 45383  53.0439 282.9384 0003369 347.0510  13.0419 15.68569703348515
STARLINK-1267,45384,53.0408,0.0001893,15.73013272,349.016904844847,351.56428753276396,1 45384U 20019AA  26186.27137744  .00102010  00000+0  72807-3 0  9994,2 45384  53.0408 273.7835 0001893  26.4915 333.6199 15.73013272348649
STARLINK-1272,45386,53.0363,0.0002434,15.77877445,334.82119142489046,338.0898550652064,1 45386U 20019AC  26186.34287947  .00119349  00000+0  68692-3 0  9995,2 45386  53.0363 251.3058 0002434  32.1425 327.9742 15.77877445348961
STARLINK-1274,45387,53.0164,0.0005787,15.67511252,362.1232320345862,369.9289263824621,1 45387U 20019AD  26186.66670139  .00187288  00000+0  16578-2 0  9992,2 45387  53.0164 250.6782 0005787 301.4381 125.4014 15.67511252  5978
STARLINK-1280,45388,53.0309,0.0006403,15.89799032,298.56800008584014,307.123666702284,1 45388U 20019AE  26186.58336806  .00249919  33841-4  83270-3 0  9992,2 45388  53.0309 255.1627 0006403   7.0684 151.0027 15.89799032  6078
STARLINK-1283,45389,53.0351,0.0004125,15.75203092,341.28041811838284,346.8262251337237,1 45389U 20019AF  26186.17139345  .00107059  00000+0  69450-3 0  9995,2 45389  53.0351 251.2642 0004125 344.1673  15.9216 15.75203092348957
STARLINK-1284,45390,53.0382,0.0003481,15.73441188,346.728882767964,351.41236471561297,1 45390U 20019AG  26186.28268296  .00101013  00000+0  70789-3 0  9998,2 45390  53.0382 274.9489 0003481  53.6709 306.4630 15.73441188348620
STARLINK-1297,45395,53.0393,0.0002729,15.76463442,338.63650121262526,342.30351691817305,1 45395U 20019AM  26186.41115856  .00108198  00000+0  66425-3 0  9994,2 45395  53.0393 273.1946 0002729  13.1682 346.9408 15.76463442347846
STARLINK-1307,45397,53.0518,0.0001481,15.58603105,390.69641761856656,392.70164305075286,1 45397U 20019AP  26186.27655885  .00049129  00000+0  63196-3 0  9991,2 45397  53.0518 282.7542 0001481 336.9417  23.1528 15.58603105348346
STARLINK-1255,45399,53.0309,8.44e-05,15.68484101,362.6681167969127,363.80606074309617,1 45399U 20019AR  26186.34154584  .00069510  00000+0  60339-3 0  9993,2 45399  53.0309 248.3458 0000844 290.4628  69.6297 15.68484101348814
STARLINK-1260,45404,53.1542,0.0001736,15.4058912,443.18509587438984,445.5538701252881,1 45404U 20019AW  26186.35375060  .00035796  00000+0  87244-3 0  9998,2 45404  53.1542 298.6862 0001736 213.7806 146.3089 15.40589120348049
STARLINK-1263,45405,53.1581,0.000224,15.3758792,451.7142153989298,454.77467428622003,1 45405U 20019AX  26186.31210688  .00049714  00000+0  13298-2 0  9991,2 45405  53.1581 300.7243 0002240 274.7317  85.3431 15.37587920348018
STARLINK-1265,45406,53.1544,7.19e-05,15.41041338,442.54426749590675,443.52515198776746,1 45406U 20019AY  26186.33958644  .00049658  00000+0  11865-2 0  9990,2 45406  53.1544 298.6703 0000719 302.5718  57.5218 15.41041338348048
STARLINK-1278,45408,53.0368,0.0002326,15.77668948,335.4851368345253,338.60904047256645,1 45408U 20019BA  26186.66670139  .00082475  00000+0  48240-3 0  9990,2 45408  53.0368 270.6359 0002326  26.7868 298.3652 15.77668948  5988
STARLINK-1296,45412,53.1548,0.0001449,15.41266293,441.3826807849964,443.35926399539494,1 45412U 20019BE  26185.72724254  .00111002  00000+0  25997-2 0  9991,2 45412  53.1548 301.2159 0001449 237.3636 122.7230 15.41266293347957
STARLINK-1309,45414,53.0572,0.000259,15.75931489,340.24131617558123,343.72233772794243,1 45414U 20019BG  26186.20807043  .00111442  00000+0  69998-3 0  9993,2 45414  53.0572 267.1895 0002590  27.4643 332.6513 15.75931489348439
